[
    {
        "Altitude(m)": 607886.6879552362,
        "Argument of Periapsis(deg)": 0.0,
        "Eccentricity": 0.0,
        "Inclination(deg)": 60.0,
        "Latitude(deg)": 40.99843419212844,
        "Longitude(deg)": -150.02697012717078,
        "Mean Anomaly(deg)": 49.09089999999999,
        "RAAN(deg)": 280.0,
        "Satellite Name": "Test1 1235",
        "Satellite Number": 1235,
        "Semi-Major Axis(m)": 6980739.136638005,
        "Time(s)": 0
    },
    {
        "Altitude(m)": 607987.601799675,
        "Argument of Periapsis(deg)": 0.00010418945913296404,
        "Eccentricity": 0.0,
        "Inclination(deg)": 60.0,
        "Latitude(deg)": 41.4635237565616,
        "Longitude(deg)": -149.5227414995926,
        "Mean Anomaly(deg)": 49.711006145461795,
        "RAAN(deg)": 279.99957995086027,
        "Satellite Name": "Test1 1235",
        "Satellite Number": 1235,
        "Semi-Major Axis(m)": 6980739.136638005,
        "Time(s)": 10
    }
]